{"type": "FeatureCollection", "features": [ {"type": "Feature", "properties": {"norad_id": 66406, "name": "STARLINK-34840", "group": "last-30-days", "lat": -22.74082803743324, "lon": -89.03424802270044, "alt_km": 421.48433415630916, "timestamp": "2025-12-07T09:35:08.569135+00:00", "meta": {"OBJECT_NAME": "STARLINK-34840", "OBJECT_ID": "2025-257AC", "EPOCH": "2025-12-06T22:52:24.205152", "MEAN_MOTION": 15.49353848, "ECCENTRICITY": 9.674e-05, "INCLINATION": 53.1584, "RA_OF_ASC_NODE": 291.4172, "ARG_OF_PERICENTER": 55.3698, "MEAN_ANOMALY": 304.7402, "EPHEMERIS_TYPE": 0, "CLASSIFICATION_TYPE": "U", "NORAD_CAT_ID": 66406, "ELEMENT_SET_NO": 999, "REV_AT_EPOCH": 542, "BSTAR": 0.0027073069, "MEAN_MOTION_DOT": 0.00153354, "MEAN_MOTION_DDOT": 0}, "tle": {"line1": "1 66406U 25257AC  25340.95305793  .00153354  00000+0  27073-2 0  9999", "line2": "2 66406  53.1584 291.4172 0000967  55.3698 304.7402 15.49353848  5425"}}, "geometry": {"type": "Point", "coordinates": [-89.03424802270044, -22.74082803743324]}}, {"type": "Feature", "properties": {"norad_id": 66407, "name": "STARLINK-35686", "group": "last-30-days", "lat": -25.462263193260956, "lon": -91.62603632166717, "alt_km": 422.1371987420662, "timestamp": "2025-12-07T09:35:08.569159+00:00", "meta": {"OBJECT_NAME": "STARLINK-35686", "OBJECT_ID": "2025-257AD", "EPOCH": "2025-12-06T21:20:30.158880", "MEAN_MOTION": 15.49435773, "ECCENTRICITY": 0.00013332, "INCLINATION": 53.1593, "RA_OF_ASC_NODE": 291.731, "ARG_OF_PERICENTER": 114.7753, "MEAN_ANOMALY": 245.3395, "EPHEMERIS_TYPE": 0, "CLASSIFICATION_TYPE": "U", "NORAD_CAT_ID": 66407, "ELEMENT_SET_NO": 999, "REV_AT_EPOCH": 547, "BSTAR": 0.0031738662, "MEAN_MOTION_DOT": 0.00181025, "MEAN_MOTION_DDOT": 0}, "tle": {"line1": "1 66407U 25257AD  25340.88923795  .00181025  00000+0  31739-2 0  9990", "line2": "2 66407  53.1593 291.7310 0001333 114.7753 245.3395 15.49435773  5477"}}, "geometry": {"type": "Point", "coordinates": [-91.62603632166717, -25.462263193260956]}}, {"type": "Feature", "properties": {"norad_id": 66408, "name": "STARLINK-35679", "group": "last-30-days", "lat": -23.751157516955086, "lon": -89.97813388112877, "alt_km": 422.0305784033544, "timestamp": "2025-12-07T09:35:08.569171+00:00", "meta": {"OBJECT_NAME": "STARLINK-35679", "OBJECT_ID": "2025-257AE", "EPOCH": "2025-12-06T04:18:12.054816", "MEAN_MOTION": 15.49356651, "ECCENTRICITY": 0.00016029, "INCLINATION": 53.1593, "RA_OF_ASC_NODE": 295.1224, "ARG_OF_PERICENTER": 102.3098, "MEAN_ANOMALY": 257.8091, "EPHEMERIS_TYPE": 0, "CLASSIFICATION_TYPE": "U", "NORAD_CAT_ID": 66408, "ELEMENT_SET_NO": 999, "REV_AT_EPOCH": 536, "BSTAR": 0.0018816254, "MEAN_MOTION_DOT": 0.00105806, "MEAN_MOTION_DDOT": 0}, "tle": {"line1": "1 66408U 25257AE  25340.17930619  .00105806  00000+0  18816-2 0  9990", "line2": "2 66408  53.1593 295.1224 0001602 102.3098 257.8091 15.49356651  5360"}}, "geometry": {"type": "Point", "coordinates": [-89.97813388112877, -23.751157516955086]}}, {"type": "Feature", "properties": {"norad_id": 66409, "name": "CHUTIAN-2 A", "group": "last-30-days", "lat": -64.21330821872186, "lon": 63.79042352471761, "alt_km": 734.7996106453838, "timestamp": "2025-12-07T09:35:08.569182+00:00", "meta": {"OBJECT_NAME": "CHUTIAN-2 A", "OBJECT_ID": "2025-256A", "EPOCH": "2025-12-06T22:17:39.267744", "MEAN_MOTION": 14.49926375, "ECCENTRICITY": 0.0013415, "INCLINATION": 98.2768, "RA_OF_ASC_NODE": 45.7929, "ARG_OF_PERICENTER": 195.5431, "MEAN_ANOMALY": 164.5353, "EPHEMERIS_TYPE": 0, "CLASSIFICATION_TYPE": "U", "NORAD_CAT_ID": 66409, "ELEMENT_SET_NO": 999, "REV_AT_EPOCH": 403, "BSTAR": 0.00051427783, "MEAN_MOTION_DOT": 1.947e-05, "MEAN_MOTION_DDOT": 0}, "tle": {"line1": "1 66409U 25256A   25340.92892671  .00001947  00000+0  51428-3 0  9996", "line2": "2 66409  98.2768  45.7929 0013415 195.5431 164.5353 14.49926375  4039"}}, "geometry": {"type": "Point", "coordinates": [63.79042352471761, -64.21330821872186]}}, {"type": "Feature", "properties": {"norad_id": 66410, "name": "CHUTIAN-2 B", "group": "last-30-days", "lat": 10.418928369705863, "lon": 44.76205926300167, "alt_km": 733.3470953974129, "timestamp": "2025-12-07T09:35:08.569192+00:00", "meta": {"OBJECT_NAME": "CHUTIAN-2 B", "OBJECT_ID": "2025-256B", "EPOCH": "2025-12-06T21:57:08.191296", "MEAN_MOTION": 14.51014303, "ECCENTRICITY": 0.0013474, "INCLINATION": 98.2802, "RA_OF_ASC_NODE": 45.8194, "ARG_OF_PERICENTER": 199.1445, "MEAN_ANOMALY": 160.9245, "EPHEMERIS_TYPE": 0, "CLASSIFICATION_TYPE": "U", "NORAD_CAT_ID": 66410, "ELEMENT_SET_NO": 999, "REV_AT_EPOCH": 403, "BSTAR": 0.00032345271, "MEAN_MOTION_DOT": 1.237e-05, "MEAN_MOTION_DDOT": 0}, "tle": {"line1": "1 66410U 25256B   25340.91467814  .00001237  00000+0  32345-3 0  9993", "line2": "2 66410  98.2802  45.8194 0013474 199.1445 160.9245 14.51014303  4037"}}, "geometry": {"type": "Point", "coordinates": [44.76205926300167, 10.418928369705863]}}, {"type": "Feature", "properties": {"norad_id": 66411, "name": "ZK-1A R/B", "group": "last-30-days", "lat": 76.80385168385754, "lon": 10.15886657275053, "alt_km": 712.7327013721542, "timestamp": "2025-12-07T09:35:08.569203+00:00", "meta": {"OBJECT_NAME": "ZK-1A R/B", "OBJECT_ID": "2025-256C", "EPOCH": "2025-12-06T22:01:38.930016", "MEAN_MOTION": 15.01774496, "ECCENTRICITY": 0.02289262, "INCLINATION": 98.3233, "RA_OF_ASC_NODE": 48.278, "ARG_OF_PERICENTER": 264.4251, "MEAN_ANOMALY": 93.0825, "EPHEMERIS_TYPE": 0, "CLASSIFICATION_TYPE": "U", "NORAD_CAT_ID": 66411, "ELEMENT_SET_NO": 999, "REV_AT_EPOCH": 417, "BSTAR": 0.00090693768, "MEAN_MOTION_DOT": 0.00020878, "MEAN_MOTION_DDOT": 0}, "tle": {"line1": "1 66411U 25256C   25340.91781169  .00020878  00000+0  90694-3 0  9999", "line2": "2 66411  98.3233  48.2780 0228926 264.4251  93.0825 15.01774496  4173"}}, "geometry": {"type": "Point", "coordinates": [10.15886657275053, 76.80385168385754]}}, {"type": "Feature", "properties": {"norad_id": 66412, "name": "HULIANWANG DIGUI 13A", "group": "last-30-days", "lat": 38.98665435595573, "lon": 61.71654159981311, "alt_km": 819.8088488975291, "timestamp": "2025-12-07T09:35:08.569213+00:00", "meta": {"OBJECT_NAME": "HULIANWANG DIGUI 13A", "OBJECT_ID": "2025-258A", "EPOCH": "2025-12-06T21:11:36.725280", "MEAN_MOTION": 14.21774266, "ECCENTRICITY": 0.00098728, "INCLINATION": 50.0171, "RA_OF_ASC_NODE": 286.6631, "ARG_OF_PERICENTER": 337.6929, "MEAN_ANOMALY": 22.3553, "EPHEMERIS_TYPE": 0, "CLASSIFICATION_TYPE": "U", "NORAD_CAT_ID": 66412, "ELEMENT_SET_NO": 999, "REV_AT_EPOCH": 382, "BSTAR": 0.00032275141, "MEAN_MOTION_DOT": 5.56e-06, "MEAN_MOTION_DDOT": 0}, "tle": {"line1": "1 66412U 25258A   25340.88306395  .00000556  00000+0  32275-3 0  9994", "line2": "2 66412  50.0171 286.6631 0009872 337.6929  22.3553 14.21774266  3825"}}, "geometry": {"type": "Point", "coordinates": [61.71654159981311, 38.98665435595573]}}, {"type": "Feature", "properties": {"norad_id": 66413, "name": "HULIANWANG DIGUI 13B", "group": "last-30-days", "lat": 48.928987516600834, "lon": -0.9384653354091399, "alt_km": 815.5744626716878, "timestamp": "2025-12-07T09:35:08.569224+00:00", "meta": {"OBJECT_NAME": "HULIANWANG DIGUI 13B", "OBJECT_ID": "2025-258B", "EPOCH": "2025-12-06T23:05:07.655424", "MEAN_MOTION": 14.21045394, "ECCENTRICITY": 0.00109243, "INCLINATION": 49.9958, "RA_OF_ASC_NODE": 286.3985, "ARG_OF_PERICENTER": 343.9291, "MEAN_ANOMALY": 16.1273, "EPHEMERIS_TYPE": 0, "CLASSIFICATION_TYPE": "U", "NORAD_CAT_ID": 66413, "ELEMENT_SET_NO": 999, "REV_AT_EPOCH": 383, "BSTAR": 0.00036123731, "MEAN_MOTION_DOT": 6.31e-06, "MEAN_MOTION_DDOT": 0}, "tle": {"line1": "1 66413U 25258B   25340.96189416  .00000631  00000+0  36124-3 0  9998", "line2": "2 66413  49.9958 286.3985 0010924 343.9291  16.1273 14.21045394  3831"}}, "geometry": {"type": "Point", "coordinates": [-0.9384653354091399, 48.928987516600834]}}, {"type": "Feature", "properties": {"norad_id": 66414, "name": "HULIANWANG DIGUI 13C", "group": "last-30-days", "lat": 49.42243749634901, "lon": 25.962451182619883, "alt_km": 818.2266743957844, "timestamp": "2025-12-07T09:35:08.569234+00:00", "meta": {"OBJECT_NAME": "HULIANWANG DIGUI 13C", "OBJECT_ID": "2025-258C", "EPOCH": "2025-12-06T23:00:14.068224", "MEAN_MOTION": 14.21123758, "ECCENTRICITY": 0.00106532, "INCLINATION": 50.0059, "RA_OF_ASC_NODE": 286.3873, "ARG_OF_PERICENTER": 337.9298, "MEAN_ANOMALY": 22.1154, "EPHEMERIS_TYPE": 0, "CLASSIFICATION_TYPE": "U", "NORAD_CAT_ID": 66414, "ELEMENT_SET_NO": 999, "REV_AT_EPOCH": 383, "BSTAR": 0.00035939892, "MEAN_MOTION_DOT": 6.28e-06, "MEAN_MOTION_DDOT": 0}, "tle": {"line1": "1 66414U 25258C   25340.95849616  .00000628  00000+0  35940-3 0  9994", "line2": "2 66414  50.0059 286.3873 0010653 337.9298  22.1154 14.21123758  3838"}}, "geometry": {"type": "Point", "coordinates": [25.962451182619883, 49.42243749634901]}}, {"type": "Feature", "properties": {"norad_id": 66415, "name": "HULIANWANG DIGUI 13D", "group": "last-30-days", "lat": 33.90587750024521, "lon": 70.12737259526222, "alt_km": 821.4908775538497, "timestamp": "2025-12-07T09:35:08.569245+00:00", "meta": {"OBJECT_NAME": "HULIANWANG DIGUI 13D", "OBJECT_ID": "2025-258D", "EPOCH": "2025-12-06T22:50:27.313728", "MEAN_MOTION": 14.21786432, "ECCENTRICITY": 0.00110818, "INCLINATION": 50.0084, "RA_OF_ASC_NODE": 286.3507, "ARG_OF_PERICENTER": 343.5522, "MEAN_ANOMALY": 16.5029, "EPHEMERIS_TYPE": 0, "CLASSIFICATION_TYPE": "U", "NORAD_CAT_ID": 66415, "ELEMENT_SET_NO": 999, "REV_AT_EPOCH": 383, "BSTAR": 0.00031006307, "MEAN_MOTION_DOT": 5.28e-06, "MEAN_MOTION_DDOT": 0}, "tle": {"line1": "1 66415U 25258D   25340.95170502  .00000528  00000+0  31006-3 0  9994", "line2": "2 66415  50.0084 286.3507 0011081 343.5522  16.5029 14.21786432  3832"}}, "geometry": {"type": "Point", "coordinates": [70.12737259526222, 33.90587750024521]}}]}